{"type": "FeatureCollection", "features": [ {"type": "Feature", "properties": {"norad_id": 66979, "name": "STARLINK-36107", "group": "last-30-days", "lat": -39.02454205466893, "lon": -23.721831141235224, "alt_km": 363.6311482826577, "timestamp": "2025-12-24T09:46:29.717665+00:00", "meta": {"OBJECT_NAME": "STARLINK-36107", "OBJECT_ID": "2025-288W", "EPOCH": "2025-12-24T04:00:01.998720", "MEAN_MOTION": 15.70168318, "ECCENTRICITY": 0.00015, "INCLINATION": 43.0002, "RA_OF_ASC_NODE": 97.2942, "ARG_OF_PERICENTER": 270.4954, "MEAN_ANOMALY": 55.7181, "EPHEMERIS_TYPE": 0, "CLASSIFICATION_TYPE": "U", "NORAD_CAT_ID": 66979, "ELEMENT_SET_NO": 999, "REV_AT_EPOCH": 366, "BSTAR": -0.017533, "MEAN_MOTION_DOT": -0.01936876, "MEAN_MOTION_DDOT": 0}, "tle": {"line1": "1 66979U 25288W   25358.16668980 -.01936876  00000+0 -17533-1 0  9990", "line2": "2 66979  43.0002  97.2942 0001500 270.4954  55.7181 15.70168318  3660"}}, "geometry": {"type": "Point", "coordinates": [-23.721831141235224, -39.02454205466893]}}, {"type": "Feature", "properties": {"norad_id": 66980, "name": "STARLINK-36086", "group": "last-30-days", "lat": -39.644043859328164, "lon": -21.39095355112348, "alt_km": 363.5602413773695, "timestamp": "2025-12-24T09:46:29.717675+00:00", "meta": {"OBJECT_NAME": "STARLINK-36086", "OBJECT_ID": "2025-288X", "EPOCH": "2025-12-24T04:00:01.998720", "MEAN_MOTION": 15.70160035, "ECCENTRICITY": 0.0001575, "INCLINATION": 43.0004, "RA_OF_ASC_NODE": 97.2891, "ARG_OF_PERICENTER": 267.2607, "MEAN_ANOMALY": 60.8665, "EPHEMERIS_TYPE": 0, "CLASSIFICATION_TYPE": "U", "NORAD_CAT_ID": 66980, "ELEMENT_SET_NO": 999, "REV_AT_EPOCH": 366, "BSTAR": -0.017345, "MEAN_MOTION_DOT": -0.01917881, "MEAN_MOTION_DDOT": 0}, "tle": {"line1": "1 66980U 25288X   25358.16668980 -.01917881  00000+0 -17345-1 0  9998", "line2": "2 66980  43.0004  97.2891 0001575 267.2607  60.8665 15.70160035  3660"}}, "geometry": {"type": "Point", "coordinates": [-21.39095355112348, -39.644043859328164]}}, {"type": "Feature", "properties": {"norad_id": 66981, "name": "STARLINK-36142", "group": "last-30-days", "lat": -40.21696227103424, "lon": -19.01354501511745, "alt_km": 363.57715264548733, "timestamp": "2025-12-24T09:46:29.717688+00:00", "meta": {"OBJECT_NAME": "STARLINK-36142", "OBJECT_ID": "2025-288Y", "EPOCH": "2025-12-24T04:00:01.998720", "MEAN_MOTION": 15.70154934, "ECCENTRICITY": 0.0001598, "INCLINATION": 43.0004, "RA_OF_ASC_NODE": 97.2846, "ARG_OF_PERICENTER": 269.1642, "MEAN_ANOMALY": 60.8832, "EPHEMERIS_TYPE": 0, "CLASSIFICATION_TYPE": "U", "NORAD_CAT_ID": 66981, "ELEMENT_SET_NO": 999, "REV_AT_EPOCH": 366, "BSTAR": -0.017292, "MEAN_MOTION_DOT": -0.01912333, "MEAN_MOTION_DDOT": 0}, "tle": {"line1": "1 66981U 25288Y   25358.16668980 -.01912333  00000+0 -17292-1 0  9997", "line2": "2 66981  43.0004  97.2846 0001598 269.1642  60.8832 15.70154934  3663"}}, "geometry": {"type": "Point", "coordinates": [-19.01354501511745, -40.21696227103424]}}, {"type": "Feature", "properties": {"norad_id": 66982, "name": "STARLINK-36113", "group": "last-30-days", "lat": -40.740331426527135, "lon": -16.597722870517213, "alt_km": 363.610247476332, "timestamp": "2025-12-24T09:46:29.717698+00:00", "meta": {"OBJECT_NAME": "STARLINK-36113", "OBJECT_ID": "2025-288Z", "EPOCH": "2025-12-24T04:00:01.998720", "MEAN_MOTION": 15.70159586, "ECCENTRICITY": 0.0001551, "INCLINATION": 43.0004, "RA_OF_ASC_NODE": 97.2793, "ARG_OF_PERICENTER": 268.9738, "MEAN_ANOMALY": 62.9873, "EPHEMERIS_TYPE": 0, "CLASSIFICATION_TYPE": "U", "NORAD_CAT_ID": 66982, "ELEMENT_SET_NO": 999, "REV_AT_EPOCH": 366, "BSTAR": -0.017337, "MEAN_MOTION_DOT": -0.01917069, "MEAN_MOTION_DDOT": 0}, "tle": {"line1": "1 66982U 25288Z   25358.16668980 -.01917069  00000+0 -17337-1 0  9999", "line2": "2 66982  43.0004  97.2793 0001551 268.9738  62.9873 15.70159586  3663"}}, "geometry": {"type": "Point", "coordinates": [-16.597722870517213, -40.740331426527135]}}, {"type": "Feature", "properties": {"norad_id": 66983, "name": "STARLINK-36145", "group": "last-30-days", "lat": -41.63150229659648, "lon": -11.655995159289708, "alt_km": 363.8610018128729, "timestamp": "2025-12-24T09:46:29.717709+00:00", "meta": {"OBJECT_NAME": "STARLINK-36145", "OBJECT_ID": "2025-288AA", "EPOCH": "2025-12-24T04:00:01.998720", "MEAN_MOTION": 15.70138342, "ECCENTRICITY": 0.0001293, "INCLINATION": 43.0002, "RA_OF_ASC_NODE": 97.2699, "ARG_OF_PERICENTER": 275.0355, "MEAN_ANOMALY": 60.7754, "EPHEMERIS_TYPE": 0, "CLASSIFICATION_TYPE": "U", "NORAD_CAT_ID": 66983, "ELEMENT_SET_NO": 999, "REV_AT_EPOCH": 366, "BSTAR": -0.017152, "MEAN_MOTION_DOT": -0.01897243, "MEAN_MOTION_DDOT": 0}, "tle": {"line1": "1 66983U 25288AA  25358.16668980 -.01897243  00000+0 -17152-1 0  9996", "line2": "2 66983  43.0002  97.2699 0001293 275.0355  60.7754 15.70138342  3665"}}, "geometry": {"type": "Point", "coordinates": [-11.655995159289708, -41.63150229659648]}}, {"type": "Feature", "properties": {"norad_id": 66984, "name": "STARLINK-35591", "group": "last-30-days", "lat": -41.21352476687983, "lon": -14.138149983889221, "alt_km": 363.6708328679051, "timestamp": "2025-12-24T09:46:29.717719+00:00", "meta": {"OBJECT_NAME": "STARLINK-35591", "OBJECT_ID": "2025-288AB", "EPOCH": "2025-12-24T04:00:01.998720", "MEAN_MOTION": 15.70162975, "ECCENTRICITY": 0.0001495, "INCLINATION": 43.0003, "RA_OF_ASC_NODE": 97.2741, "ARG_OF_PERICENTER": 269.7272, "MEAN_ANOMALY": 64.1565, "EPHEMERIS_TYPE": 0, "CLASSIFICATION_TYPE": "U", "NORAD_CAT_ID": 66984, "ELEMENT_SET_NO": 999, "REV_AT_EPOCH": 366, "BSTAR": -0.017459, "MEAN_MOTION_DOT": -0.01929203, "MEAN_MOTION_DDOT": 0}, "tle": {"line1": "1 66984U 25288AB  25358.16668980 -.01929203  00000+0 -17459-1 0  9999", "line2": "2 66984  43.0003  97.2741 0001495 269.7272  64.1565 15.70162975  3664"}}, "geometry": {"type": "Point", "coordinates": [-14.138149983889221, -41.21352476687983]}}, {"type": "Feature", "properties": {"norad_id": 66985, "name": "STARLINK-36103", "group": "last-30-days", "lat": -41.99580757220841, "lon": -9.142520551275926, "alt_km": 363.60726809941025, "timestamp": "2025-12-24T09:46:29.717729+00:00", "meta": {"OBJECT_NAME": "STARLINK-36103", "OBJECT_ID": "2025-288AC", "EPOCH": "2025-12-24T04:00:01.998720", "MEAN_MOTION": 15.70156531, "ECCENTRICITY": 0.0001613, "INCLINATION": 43.0004, "RA_OF_ASC_NODE": 97.2647, "ARG_OF_PERICENTER": 271.5919, "MEAN_ANOMALY": 66.1219, "EPHEMERIS_TYPE": 0, "CLASSIFICATION_TYPE": "U", "NORAD_CAT_ID": 66985, "ELEMENT_SET_NO": 999, "REV_AT_EPOCH": 366, "BSTAR": -0.017304, "MEAN_MOTION_DOT": -0.01913638, "MEAN_MOTION_DDOT": 0}, "tle": {"line1": "1 66985U 25288AC  25358.16668980 -.01913638  00000+0 -17304-1 0  9994", "line2": "2 66985  43.0004  97.2647 0001613 271.5919  66.1219 15.70156531  3661"}}, "geometry": {"type": "Point", "coordinates": [-9.142520551275926, -41.99580757220841]}}, {"type": "Feature", "properties": {"norad_id": 66986, "name": "STARLINK-36135", "group": "last-30-days", "lat": -42.30461399227583, "lon": -6.597396292590702, "alt_km": 363.62495414154637, "timestamp": "2025-12-24T09:46:29.717739+00:00", "meta": {"OBJECT_NAME": "STARLINK-36135", "OBJECT_ID": "2025-288AD", "EPOCH": "2025-12-24T04:00:01.998720", "MEAN_MOTION": 15.70154144, "ECCENTRICITY": 0.0001609, "INCLINATION": 43.0002, "RA_OF_ASC_NODE": 97.2593, "ARG_OF_PERICENTER": 272.4884, "MEAN_ANOMALY": 67.1462, "EPHEMERIS_TYPE": 0, "CLASSIFICATION_TYPE": "U", "NORAD_CAT_ID": 66986, "ELEMENT_SET_NO": 999, "REV_AT_EPOCH": 366, "BSTAR": -0.017311, "MEAN_MOTION_DOT": -0.01914208, "MEAN_MOTION_DDOT": 0}, "tle": {"line1": "1 66986U 25288AD  25358.16668980 -.01914208  00000+0 -17311-1 0  9997", "line2": "2 66986  43.0002  97.2593 0001609 272.4884  67.1462 15.70154144  3665"}}, "geometry": {"type": "Point", "coordinates": [-6.597396292590702, -42.30461399227583]}}, {"type": "Feature", "properties": {"norad_id": 66987, "name": "STARLINK-36147", "group": "last-30-days", "lat": -42.555993100220064, "lon": -4.033212122888907, "alt_km": 363.6828771923174, "timestamp": "2025-12-24T09:46:29.717749+00:00", "meta": {"OBJECT_NAME": "STARLINK-36147", "OBJECT_ID": "2025-288AE", "EPOCH": "2025-12-24T04:00:01.998720", "MEAN_MOTION": 15.7016305, "ECCENTRICITY": 0.0001502, "INCLINATION": 43.0001, "RA_OF_ASC_NODE": 97.2558, "ARG_OF_PERICENTER": 272.5909, "MEAN_ANOMALY": 68.9515, "EPHEMERIS_TYPE": 0, "CLASSIFICATION_TYPE": "U", "NORAD_CAT_ID": 66987, "ELEMENT_SET_NO": 999, "REV_AT_EPOCH": 366, "BSTAR": -0.017369, "MEAN_MOTION_DOT": -0.01920367, "MEAN_MOTION_DDOT": 0}, "tle": {"line1": "1 66987U 25288AE  25358.16668980 -.01920367  00000+0 -17369-1 0  9994", "line2": "2 66987  43.0001  97.2558 0001502 272.5909  68.9515 15.70163050  3661"}}, "geometry": {"type": "Point", "coordinates": [-4.033212122888907, -42.555993100220064]}}, {"type": "Feature", "properties": {"norad_id": 66988, "name": "YAOGAN-47", "group": "last-30-days", "lat": -33.42525236579301, "lon": -121.44905916140533, "alt_km": 502.570567870187, "timestamp": "2025-12-24T09:46:29.717759+00:00", "meta": {"OBJECT_NAME": "YAOGAN-47", "OBJECT_ID": "2025-289A", "EPOCH": "2025-12-20T02:21:43.539840", "MEAN_MOTION": 15.23243112, "ECCENTRICITY": 6.467e-05, "INCLINATION": 97.5265, "RA_OF_ASC_NODE": 59.2376, "ARG_OF_PERICENTER": 91.4531, "MEAN_ANOMALY": 268.678, "EPHEMERIS_TYPE": 0, "CLASSIFICATION_TYPE": "U", "NORAD_CAT_ID": 66988, "ELEMENT_SET_NO": 999, "REV_AT_EPOCH": 166, "BSTAR": 0.00010945697, "MEAN_MOTION_DOT": 2.52e-05, "MEAN_MOTION_DDOT": 0}, "tle": {"line1": "1 66988U 25289A   25354.09842060  .00002520  00000+0  10946-3 0  9992", "line2": "2 66988  97.5265  59.2376 0000646  91.4531 268.6780 15.23243112  1668"}}, "geometry": {"type": "Point", "coordinates": [-121.44905916140533, -33.42525236579301]}}]}